[Satellite]
VERSION=1.1
NAME=TELSTAR 4 (TELSTAR 402R)
NICKNAME=TELSTAR 4 (TELSTAR 402R)
TLE1=1 23670U 95049A   11057.98865021 -.00000204  00000-0  10000-3 0  1531
TLE2=2 23670   6.8111  62.3055 0004945 258.2736 101.8061  1.00282174 56501
